[{"OBJECT_NAME":"STARLINK-30151","OBJECT_ID":"2023-079E","EPOCH":"2026-03-09T22:00:01.999584","MEAN_MOTION":15.17711074,"ECCENTRICITY":0.00012075,"INCLINATION":43,"RA_OF_ASC_NODE":105.4581,"ARG_OF_PERICENTER":287.8045,"MEAN_ANOMALY":174.4924,"EPHEMERIS_TYPE":0,"CLASSIFICATION_TYPE":"U","NORAD_CAT_ID":56827,"ELEMENT_SET_NO":999,"REV_AT_EPOCH":578,"BSTAR":0.055737382,"MEAN_MOTION_DOT":0.01254348,"MEAN_MOTION_DDOT":0},{"OBJECT_NAME":"BRO-16","OBJECT_ID":"2025-009AX","EPOCH":"2026-03-09T16:55:56.220384","MEAN_MOTION":15.23029012,"ECCENTRICITY":5.557e-5,"INCLINATION":97.4092,"RA_OF_ASC_NODE":150.4664,"ARG_OF_PERICENTER":332.7889,"MEAN_ANOMALY":27.3318,"EPHEMERIS_TYPE":0,"CLASSIFICATION_TYPE":"U","NORAD_CAT_ID":62654,"ELEMENT_SET_NO":999,"REV_AT_EPOCH":6365,"BSTAR":0.00026802153,"MEAN_MOTION_DOT":6.238e-5,"MEAN_MOTION_DDOT":0}]
